{
  "norad_id": 67133,
  "name": "KUIPER-00144",
  "history": [
    {
      "epoch": "2026-03-28T22:00:01.999584Z",
      "apogee_km": 510.5861993043127,
      "perigee_km": 502.29317591795007,
      "latitude_deg": 5.386076376064507,
      "longitude_deg": -7.837024930394898,
      "height_km": 505.50233528077536,
      "semi_major_axis_km": 6884.576687611131,
      "eccentricity": 0.00060229,
      "inclination_deg": 51.8845,
      "raan_deg": 332.7201,
      "arg_perigee_deg": 99.2642,
      "mean_anomaly_deg": 73.7617,
      "mean_motion_rev_day": 15.19801606
    },
    {
      "epoch": "2026-03-29T04:00:01.999584Z",
      "apogee_km": 510.57871750567665,
      "perigee_km": 502.4520738178371,
      "latitude_deg": 50.54261288883084,
      "longitude_deg": -166.4744798204889,
      "height_km": 508.26562553822123,
      "semi_major_axis_km": 6884.652395661757,
      "eccentricity": 0.0005902,
      "inclination_deg": 51.8832,
      "raan_deg": 331.5444,
      "arg_perigee_deg": 100.0991,
      "mean_anomaly_deg": 1.5987,
      "mean_motion_rev_day": 15.19776537
    },
    {
      "epoch": "2026-03-30T04:00:01.999584Z",
      "apogee_km": 510.3168240139921,
      "perigee_km": 502.3667655913305,
      "latitude_deg": 2.609919728152941,
      "longitude_deg": -102.77096375139763,
      "height_km": 505.738562117469,
      "semi_major_axis_km": 6884.4787948026615,
      "eccentricity": 0.00057739,
      "inclination_deg": 51.8835,
      "raan_deg": 326.8379,
      "arg_perigee_deg": 102.0459,
      "mean_anomaly_deg": 74.4947,
      "mean_motion_rev_day": 15.19834022
    },
    {
      "epoch": "2026-03-30T14:00:03.000384Z",
      "apogee_km": 512.1853123781093,
      "perigee_km": 503.7322166614167,
      "latitude_deg": -44.42608898733746,
      "longitude_deg": -122.996518431296,
      "height_km": 526.9977844844204,
      "semi_major_axis_km": 6886.095764519763,
      "eccentricity": 0.00061378,
      "inclination_deg": 51.884,
      "raan_deg": 324.8752,
      "arg_perigee_deg": 108.9955,
      "mean_anomaly_deg": 188.5495,
      "mean_motion_rev_day": 15.1929873
    },
    {
      "epoch": "2026-03-30T22:00:00.999936Z",
      "apogee_km": 514.7848756064823,
      "perigee_km": 506.8145136295425,
      "latitude_deg": -29.889015134166158,
      "longitude_deg": 138.36396205424865,
      "height_km": 523.0897547859076,
      "semi_major_axis_km": 6888.936694618012,
      "eccentricity": 0.00057849,
      "inclination_deg": 51.8873,
      "raan_deg": 323.3111,
      "arg_perigee_deg": 107.6334,
      "mean_anomaly_deg": 213.391,
      "mean_motion_rev_day": 15.18359011
    },
    {
      "epoch": "2026-03-31T20:00:01.999008Z",
      "apogee_km": 521.6890674247552,
      "perigee_km": 513.8994234898855,
      "latitude_deg": -47.50565082074736,
      "longitude_deg": 131.42734352120638,
      "height_km": 537.8078926373605,
      "semi_major_axis_km": 6895.93124545732,
      "eccentricity": 0.0005648,
      "inclination_deg": 51.8894,
      "raan_deg": 319.0154,
      "arg_perigee_deg": 111.1377,
      "mean_anomaly_deg": 179.7179,
      "mean_motion_rev_day": 15.16049487
    },
    {
      "epoch": "2026-04-01T20:00:01.999008Z",
      "apogee_km": 529.2010643023877,
      "perigee_km": 521.051071924172,
      "latitude_deg": -10.120825629584147,
      "longitude_deg": 176.14296460433903,
      "height_km": 530.0129755876869,
      "semi_major_axis_km": 6903.26306811328,
      "eccentricity": 0.0005903,
      "inclination_deg": 51.8864,
      "raan_deg": 314.3472,
      "arg_perigee_deg": 111.0785,
      "mean_anomaly_deg": 236.2444,
      "mean_motion_rev_day": 15.13634878
    },
    {
      "epoch": "2026-04-02T20:00:01.999008Z",
      "apogee_km": 536.0480608865573,
      "perigee_km": 528.6869914652743,
      "latitude_deg": 26.612817337335102,
      "longitude_deg": -158.47745571381785,
      "height_km": 533.0385360805151,
      "semi_major_axis_km": 6910.504526175915,
      "eccentricity": 0.0005326,
      "inclination_deg": 51.8874,
      "raan_deg": 309.6975,
      "arg_perigee_deg": 118.6428,
      "mean_anomaly_deg": 276.0132,
      "mean_motion_rev_day": 15.11256314
    },
    {
      "epoch": "2026-04-02T22:00:01.999584Z",
      "apogee_km": 536.4590350076687,
      "perigee_km": 529.3195301961632,
      "latitude_deg": 38.30755564528647,
      "longitude_deg": -70.00148882581504,
      "height_km": 532.4836840426067,
      "semi_major_axis_km": 6911.026282601915,
      "eccentricity": 0.00051653,
      "inclination_deg": 51.8875,
      "raan_deg": 309.3109,
      "arg_perigee_deg": 117.5218,
      "mean_anomaly_deg": 10.6854,
      "mean_motion_rev_day": 15.11085176
    },
    {
      "epoch": "2026-04-03T20:00:01.999008Z",
      "apogee_km": 540.97191196314,
      "perigee_km": 533.7977496158792,
      "latitude_deg": 49.77417810502011,
      "longitude_deg": -119.88172304921905,
      "height_km": 540.4930870117134,
      "semi_major_axis_km": 6915.521830789509,
      "eccentricity": 0.0005187,
      "inclination_deg": 51.8958,
      "raan_deg": 305.059,
      "arg_perigee_deg": 120.5658,
      "mean_anomaly_deg": 314.9708,
      "mean_motion_rev_day": 15.09611957
    },
    {
      "epoch": "2026-04-04T20:00:01.999008Z",
      "apogee_km": 547.9373858018171,
      "perigee_km": 540.9566520771186,
      "latitude_deg": 48.58001296284114,
      "longitude_deg": -74.8373462496554,
      "height_km": 546.5116048988132,
      "semi_major_axis_km": 6922.584018939468,
      "eccentricity": 0.0005042,
      "inclination_deg": 51.8988,
      "raan_deg": 300.4385,
      "arg_perigee_deg": 126.7782,
      "mean_anomaly_deg": 341.2984,
      "mean_motion_rev_day": 15.07302463
    },
    {
      "epoch": "2026-04-05T14:00:03.000384Z",
      "apogee_km": 553.3511127139172,
      "perigee_km": 546.4876258300073,
      "latitude_deg": -28.141533638194787,
      "longitude_deg": 97.7466590959648,
      "height_km": 557.6591493434684,
      "semi_major_axis_km": 6928.056369271962,
      "eccentricity": 0.00049534,
      "inclination_deg": 51.8896,
      "raan_deg": 296.9842,
      "arg_perigee_deg": 135.8223,
      "mean_anomaly_deg": 80.6749,
      "mean_motion_rev_day": 15.05516928
    },
    {
      "epoch": "2026-04-05T20:00:03.000384Z",
      "apogee_km": 555.2549997763699,
      "perigee_km": 548.6312292029415,
      "latitude_deg": 36.20482285953586,
      "longitude_deg": -53.13196096687078,
      "height_km": 551.3117732368881,
      "semi_major_axis_km": 6930.080114489656,
      "eccentricity": 0.0004779,
      "inclination_deg": 51.8904,
      "raan_deg": 295.8358,
      "arg_perigee_deg": 132.8894,
      "mean_anomaly_deg": 358.6449,
      "mean_motion_rev_day": 15.04857507
    },
    {
      "epoch": "2026-04-06T06:00:02.000160Z",
      "apogee_km": 559.1658740605571,
      "perigee_km": 553.7549463933055,
      "latitude_deg": -36.51867587534365,
      "longitude_deg": -135.3455714113401,
      "height_km": 568.3787940068576,
      "semi_major_axis_km": 6934.597410226931,
      "eccentricity": 0.00039014,
      "inclination_deg": 51.8906,
      "raan_deg": 293.9233,
      "arg_perigee_deg": 132.2168,
      "mean_anomaly_deg": 96.5642,
      "mean_motion_rev_day": 15.03387318
    },
    {
      "epoch": "2026-04-07T20:00:00.999360Z",
      "apogee_km": 572.302901117534,
      "perigee_km": 565.8128316733464,
      "latitude_deg": 22.28758504338304,
      "longitude_deg": -48.068274445705974,
      "height_km": 566.4345393750208,
      "semi_major_axis_km": 6947.19486639544,
      "eccentricity": 0.0004671,
      "inclination_deg": 51.894,
      "raan_deg": 286.685,
      "arg_perigee_deg": 138.082,
      "mean_anomaly_deg": 13.1671,
      "mean_motion_rev_day": 14.99299999
    },
    {
      "epoch": "2026-04-08T14:00:04.999680Z",
      "apogee_km": 577.3961058521736,
      "perigee_km": 570.3285642881547,
      "latitude_deg": -42.94255430212325,
      "longitude_deg": 102.89771642580192,
      "height_km": 588.6426008582371,
      "semi_major_axis_km": 6951.999335070163,
      "eccentricity": 0.00050831,
      "inclination_deg": 51.9182,
      "raan_deg": 283.2715,
      "arg_perigee_deg": 141.0852,
      "mean_anomaly_deg": 98.4453,
      "mean_motion_rev_day": 14.97746037
    },
    {
      "epoch": "2026-04-09T20:00:01.999008Z",
      "apogee_km": 590.5900666836505,
      "perigee_km": 583.428503273436,
      "latitude_deg": 33.222453217318225,
      "longitude_deg": -71.19570514237633,
      "height_km": 585.7874591542796,
      "semi_major_axis_km": 6965.146284978543,
      "eccentricity": 0.0005141,
      "inclination_deg": 51.8952,
      "raan_deg": 277.6074,
      "arg_perigee_deg": 157.2632,
      "mean_anomaly_deg": 338.7875,
      "mean_motion_rev_day": 14.93507469
    },
    {
      "epoch": "2026-04-10T12:00:02.000160Z",
      "apogee_km": 591.6584693977784,
      "perigee_km": 584.1490774440308,
      "latitude_deg": 41.68917770408854,
      "longitude_deg": 31.853467148069065,
      "height_km": 588.0971995996624,
      "semi_major_axis_km": 6966.040773420904,
      "eccentricity": 0.000539,
      "inclination_deg": 51.8953,
      "raan_deg": 274.5942,
      "arg_perigee_deg": 137.2219,
      "mean_anomaly_deg": 345.3364,
      "mean_motion_rev_day": 14.93219813
    },
    {
      "epoch": "2026-04-11T20:00:01.000224Z",
      "apogee_km": 592.1757149938003,
      "perigee_km": 585.9832529828318,
      "latitude_deg": 51.98275830742731,
      "longitude_deg": -137.55450417294543,
      "height_km": 593.2214884716765,
      "semi_major_axis_km": 6967.216483988316,
      "eccentricity": 0.0004444,
      "inclination_deg": 51.8958,
      "raan_deg": 268.5807,
      "arg_perigee_deg": 141.8452,
      "mean_anomaly_deg": 310.6097,
      "mean_motion_rev_day": 14.9284186
    }
  ]
}